[{"OBJECT_NAME":"OOV-CUBE (TUBSAT-30)","OBJECT_ID":"2024-128F","EPOCH":"2026-03-28T12:46:37.130880","MEAN_MOTION":15.02370641,"ECCENTRICITY":0.00529314,"INCLINATION":61.9947,"RA_OF_ASC_NODE":146.729,"ARG_OF_PERICENTER":116.2323,"MEAN_ANOMALY":244.4223,"EPHEMERIS_TYPE":0,"CLASSIFICATION_TYPE":"U","NORAD_CAT_ID":60240,"ELEMENT_SET_NO":999,"REV_AT_EPOCH":9399,"BSTAR":0.00018377531,"MEAN_MOTION_DOT":2.3e-5,"MEAN_MOTION_DDOT":0},{"OBJECT_NAME":"ROBUSTA-3A (MEDITERRANEE)","OBJECT_ID":"2024-128J","EPOCH":"2026-03-28T14:24:23.410080","MEAN_MOTION":15.10431315,"ECCENTRICITY":0.00500468,"INCLINATION":61.986,"RA_OF_ASC_NODE":132.9567,"ARG_OF_PERICENTER":111.6908,"MEAN_ANOMALY":248.9526,"EPHEMERIS_TYPE":0,"CLASSIFICATION_TYPE":"U","NORAD_CAT_ID":60243,"ELEMENT_SET_NO":999,"REV_AT_EPOCH":9424,"BSTAR":0.00048204284,"MEAN_MOTION_DOT":7.986e-5,"MEAN_MOTION_DDOT":0},{"OBJECT_NAME":"LASARSAT","OBJECT_ID":"2024-247Q","EPOCH":"2026-03-28T00:47:41.666496","MEAN_MOTION":15.41383203,"ECCENTRICITY":0.0004133,"INCLINATION":44.9771,"RA_OF_ASC_NODE":356.5427,"ARG_OF_PERICENTER":198.684,"MEAN_ANOMALY":161.3897,"EPHEMERIS_TYPE":0,"CLASSIFICATION_TYPE":"U","NORAD_CAT_ID":62391,"ELEMENT_SET_NO":999,"REV_AT_EPOCH":7077,"BSTAR":0.00078472,"MEAN_MOTION_DOT":0.0003329,"MEAN_MOTION_DDOT":0},{"OBJECT_NAME":"CROCUBE","OBJECT_ID":"2024-247T","EPOCH":"2026-03-28T02:43:05.580192","MEAN_MOTION":15.42658067,"ECCENTRICITY":0.0003672,"INCLINATION":44.9745,"RA_OF_ASC_NODE":354.5229,"ARG_OF_PERICENTER":196.722,"MEAN_ANOMALY":163.3548,"EPHEMERIS_TYPE":0,"CLASSIFICATION_TYPE":"U","NORAD_CAT_ID":62394,"ELEMENT_SET_NO":999,"REV_AT_EPOCH":7080,"BSTAR":0.00082464402,"MEAN_MOTION_DOT":0.00036552,"MEAN_MOTION_DDOT":0},{"OBJECT_NAME":"FORESAIL-1 PRIME","OBJECT_ID":"2025-276DS","EPOCH":"2026-03-28T17:24:23.905152","MEAN_MOTION":15.17917336,"ECCENTRICITY":0.0003357,"INCLINATION":97.425,"RA_OF_ASC_NODE":162.498,"ARG_OF_PERICENTER":55.0758,"MEAN_ANOMALY":305.0791,"EPHEMERIS_TYPE":0,"CLASSIFICATION_TYPE":"U","NORAD_CAT_ID":66778,"ELEMENT_SET_NO":999,"REV_AT_EPOCH":1819,"BSTAR":0.00029746,"MEAN_MOTION_DOT":5.968e-5,"MEAN_MOTION_DDOT":0},{"OBJECT_NAME":"KNACKSAT-2","OBJECT_ID":"1998-067XZ","EPOCH":"2026-03-28T06:21:28.174752","MEAN_MOTION":15.53355433,"ECCENTRICITY":0.0009955,"INCLINATION":51.6323,"RA_OF_ASC_NODE":339.4481,"ARG_OF_PERICENTER":253.0442,"MEAN_ANOMALY":106.9457,"EPHEMERIS_TYPE":0,"CLASSIFICATION_TYPE":"U","NORAD_CAT_ID":67683,"ELEMENT_SET_NO":999,"REV_AT_EPOCH":767,"BSTAR":0.00070041,"MEAN_MOTION_DOT":0.00044943,"MEAN_MOTION_DDOT":0}]
