OOV-CUBE (TUBSAT-30)    
1 60240U 24128F   26087.53237420  .00002300  00000+0  18378-3 0  9992
2 60240  61.9947 146.7290 0052931 116.2323 244.4223 15.02370641 93997
ROBUSTA-3A (MEDITERRAN*)
1 60243U 24128J   26087.60027095  .00007986  00000+0  48204-3 0  9994
2 60243  61.9860 132.9567 0050046 111.6908 248.9526 15.10431315 94240
LASARSAT                
1 62391U 24247Q   26087.03312114  .00033290  00000+0  78472-3 0  9995
2 62391  44.9771 356.5427 0004133 198.6840 161.3897 15.41383203 70770
CROCUBE                 
1 62394U 24247T   26087.11325903  .00036552  00000+0  82464-3 0  9997
2 62394  44.9745 354.5229 0003672 196.7220 163.3548 15.42658067 70803
FORESAIL-1 PRIME        
1 66778U 25276DS  26087.72527668  .00005968  00000+0  29746-3 0  9990
2 66778  97.4250 162.4980 0003357  55.0758 305.0791 15.17917336 18198
KNACKSAT-2              
1 67683U 98067XZ  26087.26490943  .00044943  00000+0  70041-3 0  9998
2 67683  51.6323 339.4481 0009955 253.0442 106.9457 15.53355433  7671
